STARLINK-1434           
1 45712U 20035BH  26068.24137979  .00054112  00000+0  20295-2 0  9995
2 45712  53.0547  22.1128 0005343  88.0400 272.1210 15.26724568319325
STARLINK-33865          
1 64247U 25119Q   26068.04175807  .00024428  00000+0  89455-3 0  9998
2 64247  43.0008 310.4136 0001447 253.2212 106.8481 15.27570218 44049
